RADCAL                  
1 22698U 93041A   01263.97023263  .00000295  00000-0  12237-3 0  1163
2 22698  89.5871 177.1714 0089536 181.9915 178.0934 14.22097401427454
STRV 1A                 
1 23125U 94034B   01261.36591294  .00003207  00000-0  80099-3 0   613
2 23125   7.1364 102.4273 7090853 302.7811   7.9665  2.52580028 62361
STRV 1B                 
1 23126U 94034C   01260.54465630  .00003244  00000-0  69602-3 0  1100
2 23126   7.1838  94.8881 7068238 317.5557   5.5148  2.55846321 62656
HELIOS 1A               
1 23605U 95033A   01263.86160170  .00002195  00000-0  42966-3 0  5103
2 23605  98.1065 199.1263 0000843  28.2278 331.8970 14.63805351331691
REX 2                   
1 23814U 96014A   01263.93168290  .00000521  00000-0  22572-3 0  6567
2 23814  90.0298 236.6219 0021226 190.7219 169.3503 14.23052556287433
COSMOS 2346             
1 24953U 97052A   01263.95282738  .00000124  00000-0  10479-3 0  4369
2 24953  82.9175 270.9568 0040244 148.8447 211.5112 13.79254212200993
ARGOS                   
1 25634U 99008A   01263.93637329  .00000278  00000-0  15652-3 0  5311
2 25634  98.8442 215.4858 0011323  83.1667 277.0796 14.18307447133274
HELIOS 1B               
1 25977U 99064A   01263.82674237  .00000732  00000-0  14942-3 0  3437
2 25977  98.1320 198.3988 0000788  64.3887 295.7397 14.63786157 96140
MTI                     
1 26102U 00014A   01263.82568130  .00006617  00000-0  57521-3 0  9882
2 26102  97.3976 171.6398 0024968 131.7152 269.1676 14.97051967 83241
STRV 1C                 
1 26610U 00072C   01262.78492351 -.00000136  00000-0  10000-3 0   978
2 26610   6.4429 137.5396 7331683  25.3738 357.4384  2.03431001  6245
STRV 1D                 
1 26611U 00072D   01168.46783938  .00000910  00000-0  97066-2 0   271
2 26611   5.4780 174.1260 7372135 318.3553   9.2380  2.03397552  4337
STRV 1D                 
1 26611U 00072D   01018.94278881 -.00000313  00000-0  10000-3 0   153
2 26611   6.1479 225.2448 7346360 218.9299 343.2719  2.03424558  1295

